INTELSAT 701 (IS-701)   
1 22871U 93066A   16048.41688965 -.00000242  00000-0  00000+0 0  9998
2 22871   3.2712  69.6861 0003707 253.8473 303.8560  1.00272283 81528
INTELSAT 702 (IS-702)   
1 23124U 94034A   16047.69205030  .00000127  00000-0  00000+0 0  9994
2 23124   3.6160  67.9365 0001555 217.0479 143.1422  1.00271861 93546
INTELSAT 26 (IS-26)     
1 24732U 97007A   16046.99538373  .00000001  00000-0  00000+0 0  9995
2 24732   6.6818  53.7676 0002788 277.4449 234.7281  1.00272322 69433
GALAXY 25 (G-25)        
1 24812U 97026A   16047.85220962 -.00000187  00000-0  00000+0 0  9999
2 24812   0.0131  74.7324 0002971 255.4278  29.7884  1.00273068 68529
INTELSAT 5 (IS-5)       
1 24916U 97046A   16048.36123879 -.00000166  00000-0  00000+0 0  9999
2 24916   2.5960  73.5872 0003519 256.6444 103.5727  1.00272246 67784
INTELSAT 805 (IS-805)   
1 25371U 98037A   16048.11901664 -.00000021  00000-0  00000+0 0  9995
2 25371   0.0668 283.3247 0005209  70.7062  27.7417  0.99533980 64731
INTELSAT 7 (IS-7)       
1 25473U 98052A   16047.85794755 -.00000169  00000-0  00000+0 0  9999
2 25473   2.1980  76.6322 0003115 203.9569 156.3011  1.00271205 63816
AFRISTAR                
1 25515U 98063A   16047.26431075  .00000101  00000-0  00000+0 0  9991
2 25515   2.3586  70.8833 0004424 256.7117 294.2018  1.00271120 63285
INTELSAT 8 (IS-8)       
1 25522U 98065A   16047.68744315 -.00000055  00000-0  00000+0 0  9990
2 25522   0.0197  77.3181 0003639 274.4375 210.8047  1.00271570 63289
GALAXY 27 (G-27)        
1 25922U 99052A   16047.62095992 -.00000030  00000-0  00000+0 0  9998
2 25922   2.2622  75.5518 0004928 256.0914 104.1241  1.00272446 60057
GALAXY 11 (G-11)        
1 26038U 99071A   16048.03248634  .00000040  00000-0  00000+0 0  9997
2 26038   0.0335  87.1309 0007411 265.4310 169.5767  1.00505607 59272
SIRIUS-1                
1 26390U 00035A   16047.41452116  .00000088  00000-0  00000+0 0  9995
2 26390  59.6861 233.9188 2586206 267.3054  60.7513  1.00273951 57245
INTELSAT 9 (IS-9)       
1 26451U 00043A   16048.19653734 -.00000296  00000-0  00000+0 0  9999
2 26451   2.5818  73.8229 0003008 245.3917 215.0158  1.00270857 57012
SIRIUS-2                
1 26483U 00051A   16045.53900043 -.00000046  00000-0  00000+0 0  9999
2 26483  64.4813 114.0553 2806842 266.7797 225.7008  1.00276371 56578
INTELSAT 12 (IS-12)     
1 26590U 00068A   16048.21046150  .00000111  00000-0  00000+0 0  9996
2 26590   0.0598 266.4500 0003171  68.9958 291.9153  1.00273419 55968
INTELSAT 1R (IS-1R)     
1 26608U 00072A   16047.34479064 -.00000306  00000-0  00000+0 0  9995
2 26608   0.0489 274.5213 0001660 336.9940 328.3780  1.00270779 55819
SIRIUS-3                
1 26626U 00077A   16047.75546540 -.00000154  00000-0  00000+0 0  9990
2 26626  64.4359 353.7049 2659045 268.6719  61.1122  1.00281626 55735
XM-1 (ROLL)             
1 26761U 01018A   16047.40631919 -.00000281  00000-0  00000+0 0  9994
2 26761   0.0627  88.7495 0000499 324.7995 199.4457  1.00264374 54185
INTELSAT 10 (IS-10)     
1 26766U 01019A   16048.14401343  .00000101  00000-0  00000+0 0  9998
2 26766   0.5102  87.2942 0002522 237.1106 281.4790  1.00272708 54096
INTELSAT 901 (IS-901)   
1 26824U 01024A   16047.85354093 -.00000166  00000-0  00000+0 0  9997
2 26824   0.0235  57.1405 0002876 249.9690 128.4014  1.00273178 53768
INTELSAT 902 (IS-902)   
1 26900U 01039A   16046.06102682  .00000011  00000-0  00000+0 0  9993
2 26900   0.0099  95.9599 0003228 238.0627 254.4339  1.00273667 52915
DIRECTV 4S              
1 26985U 01052A   16048.37016131 -.00000139  00000-0  00000+0 0  9992
2 26985   0.0232 236.4584 0002300  76.4550 225.9028  1.00272190 52167
INTELSAT 904 (IS-904)   
1 27380U 02007A   16048.08240315  .00000024  00000-0  00000+0 0  9996
2 27380   0.0447 284.5685 0003299  42.2560 269.3008  1.00272768 51251
INTELSAT 903 (IS-903)   
1 27403U 02016A   16048.41772831 -.00000264  00000-0  00000+0 0  9999
2 27403   0.0174  84.8038 0003066 248.8623 289.0236  1.00270921 50815
DIRECTV 5 (TEMPO 1)     
1 27426U 02023A   16047.89935419 -.00000081  00000-0  00000+0 0  9993
2 27426   0.0107 106.1818 0003553 217.9516  35.8082  1.00271581 50470
INTELSAT 905 (IS-905)   
1 27438U 02027A   16048.29235800 -.00000210  00000-0  00000+0 0  9996
2 27438   0.0432 267.8894 0002703  51.6399 267.9056  1.00272089 50137
GALAXY 3C (G-3C)        
1 27445U 02030A   16047.85769017 -.00000175  00000-0  00000+0 0  9991
2 27445   0.0142  77.3873 0001981 276.8164   5.7596  1.00270366 50124
INTELSAT 906 (IS-906)   
1 27513U 02041A   16047.57931772 -.00000009  00000-0  00000+0 0  9993
2 27513   0.0334 265.2800 0003237  68.0504  85.3475  1.00271993 49132
INTELSAT 907 (IS-907)   
1 27683U 03007A   16046.67323608 -.00000225  00000-0  00000+0 0  9997
2 27683   0.0108  99.9588 0003207 224.8543  35.1336  1.00271420 47543
GALAXY 12 (G-12)        
1 27715U 03013B   16048.45714986  .00000033  00000-0  00000+0 0  9997
2 27715   0.0456 255.8580 0001937  59.5175 227.0298  1.00271097 47170
GALAXY 23 (G-23)        
1 27854U 03034A   16047.66957414 -.00000011  00000-0  00000+0 0  9998
2 27854   0.0205  95.2485 0003255 242.3402 288.5316  1.00272042 45785
GALAXY 13 (HORIZONS-1)  
1 27954U 03044A   16048.22582069  .00000023  00000-0  00000+0 0  9995
2 27954   0.0125 111.5345 0001697 158.4155 190.9471  1.00272925 45333
DIRECTV 7S              
1 28238U 04016A   16047.37048015 -.00000023  00000-0  00000+0 0  9995
2 28238   0.0437 295.3773 0003312  34.6657 190.0270  1.00271634 43229
INTELSAT 10-02          
1 28358U 04022A   16048.15739492 -.00000037  00000-0  00000+0 0  9993
2 28358   0.0153 131.0942 0000723 151.7756 279.3515  1.00271493 42792
XM-3 (RHYTHM)           
1 28626U 05008A   16048.31175514 -.00000230  00000-0  00000+0 0  9998
2 28626   0.0217  96.9582 0000403 339.8396  97.0335  1.00261872 40236
SPACEWAY 1              
1 28644U 05015A   16047.15587596 -.00000126  00000-0  00000+0 0  9998
2 28644   0.0387 280.6174 0000147 325.6443 212.4809  1.00272066 39676
DIRECTV 8               
1 28659U 05019A   16047.87372343 -.00000140  00000-0  00000+0 0  9995
2 28659   0.0074  88.3594 0003470 239.0717  32.5474  1.00269736 39352
GALAXY 28 (G-28)        
1 28702U 05022A   16048.51194061 -.00000211  00000-0  00000+0 0  9998
2 28702   0.0271 111.8699 0000198 293.8694 196.4422  1.00269437 38994
GALAXY 14 (G-14)        
1 28790U 05030A   16047.51449328  .00000013  00000-0  00000+0 0  9991
2 28790   0.0542 288.5482 0002541  35.6938 241.8815  1.00272910 38464
GALAXY 15 (G-15)        
1 28884U 05041A   16046.39998086  .00000057  00000-0  00000+0 0  9990
2 28884   0.0509 280.4734 0001882  59.6173 175.7252  1.00274215 37779
SPACEWAY 2              
1 28903U 05046B   16048.11720810 -.00000152  00000-0  00000+0 0  9994
2 28903   0.0016 145.9861 0000155 104.0571 199.5742  1.00272809 37662
GALAXY 16 (G-16)        
1 29236U 06023A   16048.43698560 -.00000152  00000-0  00000+0 0  9991
2 29236   0.0609 259.0676 0002464  52.8522 253.2074  1.00271679 35435
DIRECTV 9S              
1 29494U 06043A   16048.37016131 -.00000139  00000-0  00000+0 0  9995
2 29494   0.0183 207.2388 0003588 116.6994 214.9704  1.00272127 34277
XM-4 (BLUES)            
1 29520U 06049A   16047.54996939 -.00000048  00000-0  00000+0 0  9991
2 29520   0.0105 227.3448 0000611  90.0149 271.3219  1.00278572 34157
GALAXY 17 (G-17)        
1 31307U 07016B   16047.53830546 -.00000198  00000-0  00000+0 0  9998
2 31307   0.0255  23.3280 0003739 307.4986 277.8935  1.00271172 32237
DIRECTV 10              
1 31862U 07032A   16047.36009678 -.00000126  00000-0  00000+0 0  9998
2 31862   0.0463 288.8305 0000427 108.3398 135.3590  1.00271817 31562
SPACEWAY 3              
1 32018U 07036A   16048.30173091 -.00000177  00000-0  00000+0 0  9998
2 32018   0.0013  48.6040 0000392 262.3628 209.3927  1.00271525 31295
INTELSAT 11 (IS-11)     
1 32253U 07044B   16047.44331862 -.00000293  00000-0  00000+0 0  9993
2 32253   0.0593 265.6990 0002925  57.8896 298.8504  1.00271445 30689
HORIZONS-2              
1 32388U 07063B   16046.80532853 -.00000205  00000-0  00000+0 0  9998
2 32388   0.0162  83.9426 0002960 232.4795 203.5583  1.00271643 30032
DIRECTV 11              
1 32729U 08013A   16048.11720918 -.00000151  00000-0  00000+0 0  9990
2 32729   0.0008 151.3583 0000296 114.8874 183.2623  1.00270821 29107
GALAXY 18 (G-18)        
1 32951U 08024A   16046.93781578  .00000002  00000-0  00000+0 0  9990
2 32951   0.0161 100.6084 0002958 237.1501  22.1960  1.00273391 28244
INTELSAT 25 (IS-25)     
1 33153U 08034A   16048.17888273 -.00000249  00000-0  00000+0 0  9998
2 33153   0.0309 264.5920 0002547  54.0937 220.7889  1.00271481 27800
GALAXY 19 (G-19)        
1 33376U 08045A   16046.61919826 -.00000162  00000-0  00000+0 0  9997
2 33376   0.0256  97.1942 0002952 233.8904 299.8653  1.00272293 26989
SIRIUS FM-5             
1 35493U 09034A   16048.48448478 -.00000171  00000-0  00000+0 0  9995
2 35493   0.0566 280.3751 0000299 273.2404  31.6651  1.00270929 24144
INTELSAT 14 (IS-14)     
1 36097U 09064A   16045.72440160 -.00000294  00000-0  00000+0 0  9999
2 36097   0.0161  96.5732 0002401 227.3820  35.9983  1.00272219 22856
INTELSAT 15 (IS-15)     
1 36106U 09067A   16047.83061631 -.00000209  00000-0  00000+0 0  9995
2 36106   0.0440 291.3297 0002542  41.2418 197.8096  1.00271157 22763
DIRECTV 12              
1 36131U 09075A   16047.36009678 -.00000127  00000-0  00000+0 0  9992
2 36131   0.0396 276.2996 0000461  13.6291 242.6542  1.00271299 22547
INTELSAT 16 (IS-16)     
1 36397U 10006A   16047.74987487 -.00000299  00000-0  00000+0 0  9997
2 36397   0.0051 246.6041 0001947  81.9746  19.3449  1.00354968 21891
XM-5                    
1 37185U 10053A   16048.31175477 -.00000230  00000-0  00000+0 0  9992
2 37185   0.0034 226.5945 0000896  24.0460 283.0674  1.00270711 19611
INTELSAT 17 (IS-17)     
1 37238U 10065B   16048.14820063 -.00000027  00000-0  00000+0 0  9997
2 37238   0.0397 257.7823 0003006  77.5840 290.5273  1.00272894 19087
INTELSAT NEW DAWN       
1 37392U 11016A   16046.88672328  .00000132  00000-0  00000+0 0  9999
2 37392   0.0579 260.2969 0002426 289.1451 307.8771  1.00265352 17673
INTELSAT 18 (IS-18)     
1 37834U 11056A   16047.75221677  .00000028  00000-0  00000+0 0  9992
2 37834   0.0152 109.6520 0002339 229.1369 258.1420  1.00273254 16011
INTELSAT 22 (IS-22)     
1 38098U 12011A   16046.39732402 -.00000081  00000-0  00000-0 0  9990
2 38098   0.0238  40.9886 0002063 290.5026  28.4659  1.00273169 13987
INTELSAT 19 (IS-19)     
1 38356U 12030A   16048.13170308 -.00000082  00000-0  00000+0 0  9993
2 38356   0.0278 285.3994 0002990  48.9645  25.5863  1.00272624 13681
INTELSAT 20 (IS-20)     
1 38740U 12043A   16044.92781198 -.00000044  00000-0  00000+0 0  9990
2 38740   0.0062 103.2099 0001453  86.1822 356.4822  1.00271781 12961
INTELSAT 21 (IS-21)     
1 38749U 12045A   16048.41755191 -.00000311  00000-0  00000+0 0  9990
2 38749   0.0112  55.5941 0002624 257.2333 286.2850  1.00270759 12808
INTELSAT 23 (IS-23)     
1 38867U 12057A   16047.73520740 -.00000309  00000-0  00000+0 0  9995
2 38867   0.0412 275.3628 0002583  23.7223  58.7146  1.00270530 12272
SIRIUS FM-6             
1 39360U 13058A   16045.92156497 -.00000038  00000-0  00000+0 0  9998
2 39360   0.0204  60.3325 0000102 223.5205  76.1153  1.00272329  8490
INTELSAT 30 (IS-30)     
1 40271U 14062A   16048.09925072 -.00000176  00000-0  00000+0 0  9994
2 40271   0.0138 130.7562 0000894  72.4680 243.9305  1.00271019  4933
INTELSAT 34             
1 40874U 15039A   16048.20312441 -.00000311  00000-0  00000+0 0  9992
2 40874   0.0056  97.7141 0000766 149.5817 276.9074  1.00270440  1845
INTELSAT 29E            
1 41308U 16004A   16048.42155015 -.00000308  00000-0  00000+0 0  9990
2 41308   0.1171 295.1549 0000890 310.9960   2.7331  1.00268377   323
